STARLINK-11241 [DTC]    
1 60936U 24155N   26164.47773821 -.00005818  00000+0 -43213-4 0  9999
2 60936  53.1587 229.2939 0001040  84.9240 275.1896 15.69702045103442
STARLINK-32259          
1 60937U 24155P   26164.93176818 -.00000506  00000+0 -49617-5 0  9998
2 60937  53.1613  42.8025 0001357  82.7816 277.3339 15.30190835101073
STARLINK-32262          
1 60938U 24155Q   26164.91668981  .00309936  00000+0  11826-2 0  9999
2 60938  53.1377 356.6670 0000714  61.0114 154.9342 15.86161926  5954
STARLINK-32258          
1 60939U 24155R   26164.93703428  .00000757  00000+0  33542-4 0  9998
2 60939  53.1614  42.1230 0001356  83.8057 276.3100 15.34388161101031
STARLINK-32251          
1 60940U 24155S   26164.96018436 -.00001403  00000+0 -30408-4 0  9990
2 60940  53.1614  42.2714 0001361 115.6271 244.4873 15.34382837101081
STARLINK-32224          
1 60941U 24155T   26164.91668981  .00001093  00000+0  43467-4 0  9994
2 60941  53.1609  42.6076 0001319  87.9042 321.9833 15.34403986  5866
STARLINK-32184          
1 60942U 24155U   26164.94123926  .00002160  00000+0  75068-4 0  9991
2 60942  53.1596  42.1550 0001222  99.0867 261.0274 15.34390023101032
STARLINK-32288          
1 60943U 24155V   26164.94338134 -.00008181  00000+0 -23169-3 0  9996
2 60943  53.1621  42.1619 0001396  85.8450 274.2712 15.34339167101036
STARLINK-32276          
1 60944U 24155W   26164.92239793  .00116598  00000+0  34364-2 0  9994
2 60944  53.1611  42.7377 0000606  37.5558 322.5487 15.34144923101129
STARLINK-11289 [DTC]    
1 60991U 24158B   26164.29645605 -.00000571  00000+0  14450-6 0  9994
2 60991  53.1597 169.7447 0001106  93.7437 266.3707 15.69704667102618
STARLINK-11282 [DTC]    
1 60992U 24158C   26164.31118437 -.00003256  00000+0 -22053-4 0  9996
2 60992  53.1578 169.8457 0000883  88.6746 271.4373 15.69690434102619
STARLINK-11283 [DTC]    
1 60993U 24158D   26164.72753434 -.00002192  00000+0 -13241-4 0  9991
2 60993  53.1590 168.1866 0001204  90.4533 269.6623 15.69700426102679
STARLINK-11267 [DTC]    
1 60994U 24158E   26164.72262722 -.00001554  00000+0 -79751-5 0  9997
2 60994  53.1590 168.1597 0001179 121.2041 238.9092 15.69700467102673
STARLINK-11269 [DTC]    
1 60995U 24158F   26164.71772444 -.00001743  00000+0 -95379-5 0  9998
2 60995  53.1585 168.1220 0001006  85.4980 274.6153 15.69698001102667
STARLINK-11281 [DTC]    
1 60996U 24158G   26164.71281040 -.00001974  00000+0 -11434-4 0  9991
2 60996  53.1589 168.0822 0001248  62.1830 297.9314 15.69711615102667
STARLINK-11260 [DTC]    
1 60997U 24158H   26164.64612206 -.00002696  00000+0 -17411-4 0  9999
2 60997  53.1589 146.0715 0001343  96.3997 263.7174 15.69689505103022
STARLINK-11287 [DTC]    
1 60998U 24158J   26164.70791245 -.00002329  00000+0 -14371-4 0  9993
2 60998  53.1594 168.0561 0001329  79.3120 280.8047 15.69699940102667
STARLINK-11270 [DTC]    
1 60999U 24158K   26164.57566361  .00159438  00000+0  12940-2 0  9998
2 60999  53.1557 168.6512 0001928  39.3616 320.7542 15.69742245102649
STARLINK-11290 [DTC]    
1 61000U 24158L   26164.25240735 -.00000875  00000+0 -23693-5 0  9993
2 61000  53.1586 170.1881 0000841  48.4164 311.6926 15.69706770102664
STARLINK-11274 [DTC]    
1 61001U 24158M   26164.30627586 -.00002476  00000+0 -15597-4 0  9995
2 61001  53.1584 169.8050 0001164  53.9208 306.1918 15.69694475102607
STARLINK-11288 [DTC]    
1 61002U 24158N   26164.30135550  .00000641  00000+0  10150-4 0  9991
2 61002  53.1592 169.7688 0001632  57.1438 302.9737 15.69718981102606
STARLINK-32279          
1 61003U 24158P   26164.75376701 -.00000896  00000+0 -15406-4 0  9999
2 61003  53.1635 339.0017 0001412  93.5921 266.5243 15.34384154100361
STARLINK-32336          
1 61004U 24158Q   26164.76007773  .00000231  00000+0  17961-4 0  9990
2 61004  53.1620 339.0448 0000892  64.0675 296.0419 15.34387152100368
STARLINK-32284          
1 61005U 24158R   26164.75166369 -.00000750  00000+0 -11069-4 0  9998
2 61005  53.1639 338.9918 0001391  99.7690 260.3470 15.34387756100299
STARLINK-32282          
1 61006U 24158S   26164.91668981  .00142146  00000+0  41702-2 0  9993
2 61006  53.1592 338.4458 0001564  74.2339   1.9531 15.34164438  5877
STARLINK-32360          
1 61007U 24158T   26164.70218469 -.00000549  00000+0 -51082-5 0  9990
2 61007  53.1617 323.3887 0001389  99.9538 260.1622 15.34388409100507
STARLINK-32340          
1 61008U 24158U   26164.75796282 -.00000594  00000+0 -64554-5 0  9998
2 61008  53.1628 338.9576 0001353  79.0838 281.0317 15.34380021100291
STARLINK-32347          
1 61010U 24158W   26164.91668981  .00065129  00000+0  19248-2 0  9993
2 61010  53.1594 338.3760 0001325  75.3279  35.4795 15.34354479  5879
STARLINK-11286 [DTC]    
1 61050U 24164A   26164.79850495 -.00001282  00000+0 -57233-5 0  9994
2 61050  53.1591 197.5040 0001196  76.9288 283.1863 15.69698787100515
STARLINK-11252 [DTC]    
1 61051U 24164B   26164.34791192  .00003342  00000+0  32459-4 0  9993
2 61051  53.1585 199.6667 0001384 121.0227 239.0927 15.69691264100447
