OBJECT_NAME,OBJECT_ID,EPOCH,MEAN_MOTION,ECCENTRICITY,INCLINATION,RA_OF_ASC_NODE,ARG_OF_PERICENTER,MEAN_ANOMALY,EPHEMERIS_TYPE,CLASSIFICATION_TYPE,NORAD_CAT_ID,ELEMENT_SET_NO,REV_AT_EPOCH,BSTAR,MEAN_MOTION_DOT,MEAN_MOTION_DDOT
STARLINK-11241 [DTC],2024-155N,2026-06-13T11:27:56.581344,15.69702045,.00010403,53.1587,229.2939,84.9240,275.1896,0,U,60936,999,10344,-.43212505E-4,-.5818E-4,0
STARLINK-32259,2024-155P,2026-06-13T22:21:44.770752,15.30190835,.00013572,53.1613,42.8025,82.7816,277.3339,0,U,60937,999,10107,-.4961683E-5,-.506E-5,0
STARLINK-32262,2024-155Q,2026-06-13T22:00:01.999584,15.86161926,.00007141,53.1377,356.6670,61.0114,154.9342,0,U,60938,999,595,.11826162E-2,.309936E-2,0
STARLINK-32258,2024-155R,2026-06-13T22:29:19.761792,15.34388161,.00013565,53.1614,42.1230,83.8057,276.3100,0,U,60939,999,10103,.33542165E-4,.757E-5,0
STARLINK-32251,2024-155S,2026-06-13T23:02:39.928704,15.34382837,.00013612,53.1614,42.2714,115.6271,244.4873,0,U,60940,999,10108,-.30408178E-4,-.1403E-4,0
STARLINK-32224,2024-155T,2026-06-13T22:00:01.999584,15.34403986,.00013192,53.1609,42.6076,87.9042,321.9833,0,U,60941,999,586,.43467416E-4,.1093E-4,0
STARLINK-32184,2024-155U,2026-06-13T22:35:23.072064,15.34390023,.0001222,53.1596,42.1550,99.0867,261.0274,0,U,60942,999,10103,.75068239E-4,.216E-4,0
STARLINK-32288,2024-155V,2026-06-13T22:38:28.147776,15.34339167,.00013964,53.1621,42.1619,85.8450,274.2712,0,U,60943,999,10103,-.23168756E-3,-.8181E-4,0
STARLINK-32276,2024-155W,2026-06-13T22:08:15.181152,15.34144923,.00006068,53.1611,42.7377,37.5558,322.5487,0,U,60944,999,10112,.34364381E-2,.116598E-2,0
STARLINK-11289 [DTC],2024-158B,2026-06-13T07:06:53.802720,15.69704667,.0001106,53.1597,169.7447,93.7437,266.3707,0,U,60991,999,10261,.1445E-6,-.571E-5,0
STARLINK-11282 [DTC],2024-158C,2026-06-13T07:28:06.329568,15.69690434,.00008839,53.1578,169.8457,88.6746,271.4373,0,U,60992,999,10261,-.22052686E-4,-.3256E-4,0
STARLINK-11283 [DTC],2024-158D,2026-06-13T17:27:38.966976,15.69700426,.00012045,53.1590,168.1866,90.4533,269.6623,0,U,60993,999,10267,-.13240559E-4,-.2192E-4,0
STARLINK-11267 [DTC],2024-158E,2026-06-13T17:20:34.991808,15.69700467,.00011797,53.1590,168.1597,121.2041,238.9092,0,U,60994,999,10267,-.7975107E-5,-.1554E-4,0
STARLINK-11269 [DTC],2024-158F,2026-06-13T17:13:31.391616,15.69698001,.00010068,53.1585,168.1220,85.4980,274.6153,0,U,60995,999,10266,-.9537852E-5,-.1743E-4,0
STARLINK-11281 [DTC],2024-158G,2026-06-13T17:06:26.818560,15.69711615,.00012484,53.1589,168.0822,62.1830,297.9314,0,U,60996,999,10266,-.11434411E-4,-.1974E-4,0
STARLINK-11260 [DTC],2024-158H,2026-06-13T15:30:24.945984,15.69689505,.00013435,53.1589,146.0715,96.3997,263.7174,0,U,60997,999,10302,-.17411173E-4,-.2696E-4,0
STARLINK-11287 [DTC],2024-158J,2026-06-13T16:59:23.635680,15.69699940,.0001329,53.1594,168.0561,79.3120,280.8047,0,U,60998,999,10266,-.14371426E-4,-.2329E-4,0
STARLINK-11270 [DTC],2024-158K,2026-06-13T13:48:57.335904,15.69742245,.0001928,53.1557,168.6512,39.3616,320.7542,0,U,60999,999,10264,.1294E-2,.159438E-2,0
STARLINK-11290 [DTC],2024-158L,2026-06-13T06:03:27.995040,15.69706770,.0000841,53.1586,170.1881,48.4164,311.6926,0,U,61000,999,10266,-.23693E-5,-.875E-5,0
STARLINK-11274 [DTC],2024-158M,2026-06-13T07:21:02.234304,15.69694475,.0001164,53.1584,169.8050,53.9208,306.1918,0,U,61001,999,10260,-.15597E-4,-.2476E-4,0
STARLINK-11288 [DTC],2024-158N,2026-06-13T07:13:57.115200,15.69718981,.0001632,53.1592,169.7688,57.1438,302.9737,0,U,61002,999,10260,.1015E-4,.641E-5,0
STARLINK-32279,2024-158P,2026-06-13T18:05:25.469664,15.34384154,.00014121,53.1635,339.0017,93.5921,266.5243,0,U,61003,999,10036,-.15406053E-4,-.896E-5,0
STARLINK-32336,2024-158Q,2026-06-13T18:14:30.715872,15.34387152,.00008924,53.1620,339.0448,64.0675,296.0419,0,U,61004,999,10036,.1796138E-4,.231E-5,0
STARLINK-32284,2024-158R,2026-06-13T18:02:23.742816,15.34387756,.00013916,53.1639,338.9918,99.7690,260.3470,0,U,61005,999,10029,-.11068646E-4,-.75E-5,0
STARLINK-32282,2024-158S,2026-06-13T22:00:01.999584,15.34164438,.00015641,53.1592,338.4458,74.2339,1.9531,0,U,61006,999,587,.41701572E-2,.142146E-2,0
STARLINK-32360,2024-158T,2026-06-13T16:51:08.757216,15.34388409,.00013899,53.1617,323.3887,99.9538,260.1622,0,U,61007,999,10050,-.5108193E-5,-.549E-5,0
STARLINK-32340,2024-158U,2026-06-13T18:11:27.987648,15.34380021,.0001353,53.1628,338.9576,79.0838,281.0317,0,U,61008,999,10029,-.6455362E-5,-.594E-5,0
STARLINK-32347,2024-158W,2026-06-13T22:00:01.999584,15.34354479,.00013255,53.1594,338.3760,75.3279,35.4795,0,U,61010,999,587,.19248392E-2,.65129E-3,0
STARLINK-11286 [DTC],2024-164A,2026-06-13T19:09:50.827680,15.69698787,.00011963,53.1591,197.5040,76.9288,283.1863,0,U,61050,999,10051,-.5723294E-5,-.1282E-4,0
STARLINK-11252 [DTC],2024-164B,2026-06-13T08:20:59.589888,15.69691264,.00013846,53.1585,199.6667,121.0227,239.0927,0,U,61051,999,10044,.3245923E-4,.3342E-4,0
